1 52871U 22062AT  23327.81968517 -.00000057  00000+0  14537-4 0  9993
2 52871  53.2159 170.9769 0001380  94.2994 265.8156 15.08833498 80211
STARLINK-4213           
1 52872U 22062AU  23327.82431868 -.00000984  00000+0 -43757-4 0  9995
2 52872  53.2154 170.9263 0001601  88.2192 271.8984 15.08831351 80217
STARLINK-4211           
1 52873U 22062AV  23327.81232825 -.00000596  00000+0 -19397-4 0  9999
2 52873  53.2146 171.0108 0001201  77.6542 282.4585 15.08825296 80212
STARLINK-4210           
1 52874U 22062AW  23327.82336469  .00000106  00000+0  24729-4 0  9990
2 52874  53.2159 170.9604 0001347  91.4210 268.6936 15.08834876 80213
STARLINK-4193           
1 52875U 22062AX  23327.80864452 -.00003103  00000+0 -17704-3 0  9993
2 52875  53.2153 171.0259 0001338  86.3050 273.8095 15.08828157 80210
STARLINK-4200           
1 52876U 22062AY  23327.81600492 -.00000662  00000+0 -23528-4 0  9996
2 52876  53.2151 170.9946 0001450 107.9610 252.1540 15.08832221 80219
STARLINK-4214           
1 52877U 22062AZ  23327.78288727 -.00000167  00000+0  76140-5 0  9994
2 52877  53.2160 171.1380 0001746  97.5884 262.5307 15.08833833 80216
STARLINK-4171           
1 52878U 22062BA  23327.80496511 -.00002256  00000+0 -12371-3 0  9996
2 52878  53.2164 171.0418 0001534  86.2962 273.8206 15.08828979 80217
STARLINK-4139           
1 52879U 22062BB  23327.83808336 -.00003222  00000+0 -18447-3 0  9996
2 52879  53.2152 170.8979 0001568  84.8029 275.3142 15.08832591 80221
STARLINK-4186           
1 52880U 22062BC  23327.77552307 -.00002100  00000+0 -11391-3 0  9990
2 52880  53.2150 171.1744 0001354  84.2979 275.8167 15.08837727 80213
STARLINK-4192           
1 52881U 22062BD  23326.82340674 -.00000675  00000+0 -24298-4 0  9994
2 52881  53.2146 175.8427 0001456  98.6364 261.4793 15.08835676 79572
STARLINK-4181           
1 52882U 22062BE  23327.83904677 -.00000203  00000+0  53650-5 0  9997
2 52882  53.2147 170.9376 0001529  88.3829 271.7338 15.08834583 80225
STARLINK-4260           
1 52986U 22076A   23327.23823023  .00002705  00000+0  18790-3 0  9998
2 52986  53.2168 253.5837 0001626  97.5255 262.5922 15.08851051 76418
STARLINK-4259           
1 52987U 22076B   23327.21155901  .00012977  00000+0  83168-3 0  9993
2 52987  53.2159 263.7064 0001236  97.4780 262.6353 15.08852154 76743
STARLINK-4291           
1 52988U 22076C   23327.83072444 -.00001666  00000+0 -86588-4 0  9997
2 52988  53.2177 250.9307 0001619 104.9864 255.1308 15.08832692 76971
STARLINK-4293           
1 52989U 22076D   23327.20787187  .00001701  00000+0  12491-3 0  9995
2 52989  53.2166 263.7248 0001961  90.8167 269.3050 15.08851604 76273
STARLINK-4286           
1 52990U 22076E   23327.13795335  .00002775  00000+0  19231-3 0  9994
2 52990  53.2164 264.0400 0001451  82.4133 277.7024 15.08849711 76260
STARLINK-4285           
1 52991U 22076F   23327.79667637 -.00001590  00000+0 -81822-4 0  9992
2 52991  53.2165 261.0803 0001774 114.7170 245.4007 15.08836197 76834
STARLINK-4269           
1 52992U 22076G   23327.79395592  .00021385  00000+0  13573-2 0  9999
2 52992  53.2169 261.1090 0002071  61.3689 298.7512 15.08849941 76834
STARLINK-4264           
1 52993U 22076H   23327.23086903  .00005529  00000+0  36502-3 0  9992
2 52993  53.2164 253.6199 0001535 104.6562 255.4601 15.08858590 76414
STARLINK-4256           
1 52994U 22076J   23327.82336820 -.00004659  00000+0 -27502-3 0  9999
2 52994  53.2178 250.9633 0000961  91.2208 268.8894 15.08818826 76974
STARLINK-4296           
1 52995U 22076K   23327.21982975  .00004807  00000+0  31979-3 0  9997
2 52995  53.2171 253.6646 0001550 106.3137 253.8025 15.08855050 76415
STARLINK-4295           
1 52996U 22076L   23327.81968295 -.00002552  00000+0 -14237-3 0  9998
2 52996  53.2171 250.9796 0000962  87.9257 272.1845 15.08823779 76973
STARLINK-4301           
1 52997U 22076M   23327.12916928  .00013853  00000+0  57739-3 0  9997
2 52997  53.2490 232.5095 0002947  18.0633 342.0470 15.23992173 76719
STARLINK-4254           
1 52998U 22076N   23327.80494965 -.00003704  00000+0 -21480-3 0  9995
2 52998  53.2175 250.9540 0001262  94.2325 265.8811 15.08829022 76976
STARLINK-4217           
1 52999U 22076P   23327.79760619  .00000679  00000+0  60782-4 0  9991
2 52999  53.2168 251.0729 0001763 119.6162 240.5006 15.08831533 76973
STARLINK-4194           
1 53000U 22076Q   23327.81232205 -.00002633  00000+0 -14742-3 0  9991
2 53000  53.2174 251.0040 0001901 112.7180 247.4013 15.08830816 76975
STARLINK-4190           
1 53001U 22076R   23327.06527624  .00002774  00000+0  19228-3 0  9999
2 53001  53.2165 254.3659 0001755  72.8081 287.3103 15.08848725 76398
STARLINK-4121           
1 53002U 22076S   23327.21246578  .00002932  00000+0  20212-3 0  9994
2 53002  53.2180 253.6990 0001709  94.7951 265.3236 15.08862088 76418
STARLINK-4255           
1 53003U 22076T   23327.12415508  .00003807  00000+0  25707-3 0  9992
2 53003  53.2165 254.1011 0001920  64.0280 296.0909 15.08852651 76404
STARLINK-4253           
1 53004U 22076U   23327.80125894  .00007931  00000+0  51535-3 0  9994
2 53004  53.2169 251.0557 0001589  95.9593 264.1580 15.08874877 76978
STARLINK-4288           
1 53005U 22076V   23327.12047311  .00002557  00000+0  17864-3 0  9993
2 53005  53.2184 254.1143 0001889  60.5785 299.5395 15.08849563 76403
STARLINK-4290           
1 53006U 22076W   23327.79024030 -.00000999  00000+0 -44680-4 0  9997
2 53006  53.2165 251.1097 0001686 102.3152 257.8029 15.08832955 76976
STARLINK-4215           
1 53007U 22076X   23327.11311364  .00003291  00000+0  22474-3 0  9995
2 53007  53.2169 254.1437 0001898  65.4457 294.6733 15.08849425 76403
STARLINK-4275           
1 53008U 22076Y   23327.11678908  .00002281  00000+0  16129-3 0  9994
2 53008  53.2170 254.1202 0001377  88.3683 271.7467 15.08856129 76402
STARLINK-4277           
1 53009U 22076Z   23327.76172032 -.00001655  00000+0 -85944-4 0  9991
2 53009  53.2165 241.2376 0001439  95.8220 264.2936 15.08832286 77109
STARLINK-4263           
1 53010U 22076AA  23327.81332457 -.00004294  00000+0 -25199-3 0  9995
2 53010  53.2170 251.3670 0001096  79.4605 280.6510 15.08824969 76973
STARLINK-4265           
1 53011U 22076AB  23327.09563467  .00002992  00000+0  20596-3 0  9990
2 53011  53.2170 244.2284 0001797  69.5360 290.5825 15.08850104 76533
STARLINK-4271           
1 53012U 22076AC  23327.77184320 -.00000982  00000+0 -43577-4 0  9997
2 53012  53.2165 251.1897 0001875 120.1259 239.9919 15.08834475 76975
STARLINK-4177           
1 53013U 22076AD  23327.22075195  .00003000  00000+0  20646-3 0  9990
2 53013  53.2160 243.6620 0001574  85.5461 274.5710 15.08852449 76555
STARLINK-4183           
1 53014U 22076AE  23327.76540142 -.00001381  00000+0 -68692-4 0  9995
2 53014  53.2160 241.2184 0001326 109.4150 250.6986 15.08834410 77101
STARLINK-4262           
1 53015U 22076AF  23327.21339353  .00001906  00000+0  13780-3 0  9994
2 53015  53.2171 243.6943 0001968 112.6940 247.4260 15.08842708 76554
STARLINK-4283           
1 53016U 22076AG  23327.09194972  .00002893  00000+0  19971-3 0  9991
2 53016  53.2183 244.2426 0001639  73.6476 286.4696 15.08853788 77003
STARLINK-4281           
1 53017U 22076AH  23327.80588385  .00000721  00000+0  63427-4 0  9990
2 53017  53.2174 241.0407 0001698 113.1327 246.9844 15.08833091 77111
STARLINK-4279           
1 53018U 22076AJ  23327.77647058  .00001030  00000+0  82788-4 0  9995
2 53018  53.2142 241.4305 0001558  83.5979 276.5190 15.08838718 77109
STARLINK-4282           
1 53019U 22076AK  23327.79852233 -.00000501  00000+0 -13413-4 0  9994
2 53019  53.2174 241.0736 0001578 109.4640 250.6522 15.08832703 77115
STARLINK-4287           
1 53020U 22076AL  23327.21706908  .00007815  00000+0  50825-3 0  9990
2 53020  53.2175 243.6788 0001662  72.7765 287.3409 15.08860988 76551
STARLINK-4203           
1 53021U 22076AM  23327.79116327  .00004139  00000+0  27796-3 0  9991
2 53021  53.2175 241.1036 0001586 102.3444 257.7725 15.08846719 77111
STARLINK-4216           
1 53022U 22076AN  23327.80220499 -.00001514  00000+0 -77049-4 0  9993
2 53022  53.2173 241.0516 0001591  81.1325 278.9847 15.08829077 77118
STARLINK-4284           
1 53023U 22076AP  23327.05515281  .00008563  00000+0  55519-3 0  9993
2 53023  53.2167 244.4011 0001575  93.2117 266.9056 15.08858684 76534
STARLINK-4289           
1 53024U 22076AQ  23327.05883162  .00006376  00000+0  41808-3 0  9996
2 53024  53.2178 244.3930 0001533  90.1954 269.9214 15.08859441 76536
STARLINK-4218           
1 53025U 22076AR  23327.78012100  .00000104  00000+0  24608-4 0  9996
2 53025  53.2177 241.1628 0001800  93.1091 267.0107 15.08837697 77111
STARLINK-4119           
1 53026U 22076AS  23327.78474545 -.00001125  00000+0 -52593-4 0  9992
2 53026  53.2174 241.0304 0001670 101.3809 258.7371 15.08834383 77112
STARLINK-4158           
1 53027U 22076AT  23327.76908867  .00001756  00000+0  12841-3 0  9999
2 53027  53.2160 241.2094 0001838  71.9302 288.1891 15.08833131 77116
STARLINK-4143           
1 53029U 22076AV  23327.02663320  .00002799  00000+0  19382-3 0  9997
2 53029  53.2165 234.5353 0001765  83.2040 276.9153 15.08849986 76660
STARLINK-4160           
1 53030U 22076AW  23327.79487087 -.00002361  00000+0 -13034-3 0  9992
2 53030  53.2188 241.2898 0001754 106.4377 253.6808 15.08828638 77116
STARLINK-4137           
1 53031U 22076AX  23327.21430482  .00009238  00000+0  59726-3 0  9993
2 53031  53.2170 233.6848 0001582  96.4793 263.6379 15.08868839 76690
STARLINK-4115           
1 53032U 22076AY  23327.04412175 -.00001384  00000+0 -68866-4 0  9996
2 53032  53.2158 244.4553 0001512 105.2636 254.8523 15.08836571 76532
STARLINK-4167           
1 53033U 22076AZ  23327.01926568  .00001507  00000+0  11268-3 0  9998
2 53033  53.2164 234.5704 0001510  96.6637 263.4527 15.08857782 76661
STARLINK-4151           
1 53034U 22076BA  23327.35864551  .00134358  00000+0  85388-2 0  9993
